TANDEM-X                
1 36605U 10030A   26165.55699444  .00000494  00000+0  26723-4 0  9990
2 36605  97.4451 173.3020 0001853  84.5205 275.6241 15.19148396886241
COMS 1                  
1 36744U 10032A   26165.90754437  .00000023  00000+0  00000+0 0  9992
2 36744   4.7990  75.3807 0011440  11.6720 225.4123  0.99162575 51067
ARABSAT-5A              
1 36745U 10032B   26166.26482125  .00000157  00000+0  00000+0 0  9993
2 36745   0.0869  58.8900 0005740  44.6350 285.8429  1.00273128 58621
ECHOSTAR 15             
1 36792U 10034A   26166.23547211  .00000003  00000+0  00000+0 0  9992
2 36792   0.0330  61.8427 0001568  31.9305 135.7174  1.00272280 58300
CARTOSAT-2B             
1 36795U 10035A   26166.24191931  .00000939  00000+0  13520-3 0  9994
2 36795  97.9957 216.8039 0011069 190.0607 170.0384 14.78660440859563
ALSAT-2A                
1 36798U 10035D   26166.25169977  .00001067  00000+0  16772-3 0  9998
2 36798  97.7620 168.9028 0001190  92.8378 267.2967 14.74481354853475
TISAT 1                 
1 36799U 10035E   26166.09188583  .00018059  00000+0  59315-3 0  9994
2 36799  98.0712 112.4550 0001141 171.8343 188.2915 15.31640446867385
BEIDOU-2 IGSO-1         
1 36828U 10036A   26165.92383274 -.00000061  00000+0  00000+0 0  9991
2 36828  54.3019 162.9804 0059257 225.1385 315.3352  1.00272534 58071
NILESAT 201             
1 36830U 10037A   26166.25762788 -.00000054  00000+0  00000+0 0  9995
2 36830   0.0468 123.9583 0004407 350.3721 234.9821  1.00271889 58353
RASCOM-QAF 1R           
1 36831U 10037B   26166.25962123  .00000022  00000+0  00000+0 0  9995
2 36831   0.0193  66.1373 0006777  13.6451 280.1225  1.00272301 58288
YAOGAN-10               
1 36834U 10038A   26166.33574713  .00001326  00000+0  16042-3 0  9997
2 36834  97.8974 189.7547 0001690  85.4400   5.3388 14.85344560856936
AEHF-1 (USA 214)        
1 36868U 10039A   26165.90849145  .00000146  00000+0  00000+0 0  9993
2 36868   8.2136  68.0797 0003813   7.4601 184.6495  1.00273313 53637
COSMOS 2467             
1 37152U 10043A   26166.24421729  .00000039  00000+0  20762-3 0  9999
2 37152  82.4573  66.2367 0001636  99.1220  22.8103 12.42984700715262
STRELA 3                
1 37153U 10043B   26166.29391339  .00000028  00000+0  13278-3 0  9990
2 37153  82.4584  79.5990 0008737  85.2857 274.9219 12.40791753714130
COSMOS 2468 (RODNIK-S 3)
1 37154U 10043C   26166.24349709  .00000030  00000+0  14527-3 0  9991
2 37154  82.4612  63.4549 0014178 316.9067 165.3859 12.43747203715631
YAOGAN-11               
1 37165U 10047A   26166.22690896  .00000564  00000+0  77943-4 0  9995
2 37165  98.3857  32.2378 0033461 247.8989 111.8669 14.82079387847801
ZHEDA PIXING 1B         
1 37166U 10047B   26166.28721163  .00002358  00000+0  24251-3 0  9990
2 37166  97.9468 144.4575 0017882 289.0949  70.8332 14.91210214850130
ZHEDA PIXING 1C         
1 37167U 10047C   26166.21178721  .00001620  00000+0  16958-3 0  9996
2 37167  97.9762 147.8022 0017780 296.7268  63.2129 14.90945974850135
SBSS (USA 216)          
1 37168U 10048A   26166.22985589  .00002846  00000+0  13821-3 0  9994
2 37168  97.7338  51.6522 0080165 209.3430 265.3900 15.16534297852177
SHIJIAN-6 04A (SJ-6 04A)
1 37179U 10051A   26166.31207611  .00003441  00000+0  17248-3 0  9992
2 37179  97.8281 189.4386 0017171 228.2652 131.7113 15.17958633856663
SHIJIAN-6 04B (SJ-6 04B)
1 37180U 10051B   26166.28776036  .00001177  00000+0  10133-3 0  9992
2 37180  97.8679 171.6781 0008213 320.7136  39.3490 14.99310343855399
XM-5                    
1 37185U 10053A   26166.01642035 -.00000018  00000+0  00000+0 0  9993
2 37185   0.0647 273.1886 0002890 289.1857 311.6507  1.00271028 57463
GLOBALSTAR M079         
1 37188U 10054A   26166.14608759 -.00000119  00000+0 -87019-4 0  9999
2 37188  52.0032 114.8830 0000669  19.1203 354.0337 12.62266071722293
GLOBALSTAR M074         
1 37189U 10054B   26166.17247564 -.00000125  00000+0 -11807-3 0  9994
2 37189  52.0005 114.0676 0000502  49.4396 323.9013 12.62268388722906
GLOBALSTAR M076         
1 37190U 10054C   26166.11954987 -.00000112  00000+0 -45936-4 0  9991
2 37190  52.0024 114.4316 0000686  39.8014 333.0406 12.62261787722619
GLOBALSTAR M077         
1 37191U 10054D   26166.24374608 -.00000065  00000+0  23181-3 0  9995
2 37191  51.9922 184.2290 0002765 169.0850 272.1211 11.67547791720919
GLOBALSTAR M075         
1 37192U 10054E   26166.14724395 -.00000114  00000+0 -57758-4 0  9991
2 37192  51.9920 156.4037 0000114  19.8267  58.7839 12.62267401721680
GLOBALSTAR M073         
1 37193U 10054F   26166.05394907 -.00000106  00000+0 -10361-4 0  9994
2 37193  52.0068  70.7859 0000886  43.3790 329.6067 12.62262122723663
BSAT-3B                 
1 37207U 10056B   26166.28076799 -.00000346  00000+0  00000+0 0  9992
2 37207   0.0664 243.6048 0001525 304.6599 286.2344  1.00270198 52085
BEIDOU-2 G4             
1 37210U 10057A   26166.33235538 -.00000112  00000+0  00000+0 0  9992
2 37210   3.6415  68.9537 0005258 196.9053 277.4114  1.00270763 57278
