OBJECT_NAME,OBJECT_ID,EPOCH,MEAN_MOTION,ECCENTRICITY,INCLINATION,RA_OF_ASC_NODE,ARG_OF_PERICENTER,MEAN_ANOMALY,EPHEMERIS_TYPE,CLASSIFICATION_TYPE,NORAD_CAT_ID,ELEMENT_SET_NO,REV_AT_EPOCH,BSTAR,MEAN_MOTION_DOT,MEAN_MOTION_DDOT
TANDEM-X,2010-030A,2026-06-14T13:22:04.319616,15.19148396,.0001853,97.4451,173.3020,84.5205,275.6241,0,U,36605,999,88624,.26723E-4,.494E-5,0
COMS 1,2010-032A,2026-06-14T21:46:51.833568,0.99162575,.00114404,4.7990,75.3807,11.6720,225.4123,0,U,36744,999,5106,0,.23E-6,0
ARABSAT-5A,2010-032B,2026-06-15T06:21:20.556000,1.00273128,.00057407,0.0869,58.8900,44.6350,285.8429,0,U,36745,999,5862,0,.157E-5,0
ECHOSTAR 15,2010-034A,2026-06-15T05:39:04.790304,1.00272280,.00015681,0.0330,61.8427,31.9305,135.7174,0,U,36792,999,5830,0,.3E-7,0
CARTOSAT-2B,2010-035A,2026-06-15T05:48:21.828384,14.78660440,.00110693,97.9957,216.8039,190.0607,170.0384,0,U,36795,999,85956,.13520474E-3,.939E-5,0
ALSAT-2A,2010-035D,2026-06-15T06:02:26.860128,14.74481354,.00011909,97.7620,168.9028,92.8378,267.2967,0,U,36798,999,85347,.16772373E-3,.1067E-4,0
TISAT 1,2010-035E,2026-06-15T02:12:18.935712,15.31640446,.00011416,98.0712,112.4550,171.8343,188.2915,0,U,36799,999,86738,.59314708E-3,.18059E-3,0
BEIDOU-2 IGSO-1,2010-036A,2026-06-14T22:10:19.148736,1.00272534,.00592579,54.3019,162.9804,225.1385,315.3352,0,U,36828,999,5807,0,-.61E-6,0
NILESAT 201,2010-037A,2026-06-15T06:10:59.048832,1.00271889,.0004407,0.0468,123.9583,350.3721,234.9821,0,U,36830,999,5835,0,-.54E-6,0
RASCOM-QAF 1R,2010-037B,2026-06-15T06:13:51.274272,1.00272301,.00067772,0.0193,66.1373,13.6451,280.1225,0,U,36831,999,5828,0,.22E-6,0
YAOGAN-10,2010-038A,2026-06-15T08:03:28.552032,14.85344560,.00016903,97.8974,189.7547,85.4400,5.3388,0,U,36834,999,85693,.16041762E-3,.1326E-4,0
AEHF-1 (USA 214),2010-039A,2026-06-14T21:48:13.661280,1.00273313,.00038138,8.2136,68.0797,7.4601,184.6495,0,U,36868,999,5363,0,.146E-5,0
COSMOS 2467,2010-043A,2026-06-15T05:51:40.373856,12.42984700,.00016365,82.4573,66.2367,99.1220,22.8103,0,U,37152,999,71526,.20761918E-3,.39E-6,0
STRELA 3,2010-043B,2026-06-15T07:03:14.116896,12.40791753,.00087378,82.4584,79.5990,85.2857,274.9219,0,U,37153,999,71413,.13278096E-3,.28E-6,0
COSMOS 2468 (RODNIK-S 3),2010-043C,2026-06-15T05:50:38.148576,12.43747203,.00141783,82.4612,63.4549,316.9067,165.3859,0,U,37154,999,71563,.14527429E-3,.3E-6,0
YAOGAN-11,2010-047A,2026-06-15T05:26:44.934144,14.82079387,.00334615,98.3857,32.2378,247.8989,111.8669,0,U,37165,999,84780,.77943232E-4,.564E-5,0
ZHEDA PIXING 1B,2010-047B,2026-06-15T06:53:35.084832,14.91210214,.00178824,97.9468,144.4575,289.0949,70.8332,0,U,37166,999,85013,.24250634E-3,.2358E-4,0
ZHEDA PIXING 1C,2010-047C,2026-06-15T05:04:58.414944,14.90945974,.00177809,97.9762,147.8022,296.7268,63.2129,0,U,37167,999,85013,.16958069E-3,.162E-4,0
SBSS (USA 216),2010-048A,2026-06-15T05:30:59.548896,15.16534297,.0080165,97.7338,51.6522,209.3430,265.3900,0,U,37168,999,85217,.13821E-3,.2846E-4,0
SHIJIAN-6 04A (SJ-6 04A),2010-051A,2026-06-15T07:29:23.375904,15.17958633,.00171714,97.8281,189.4386,228.2652,131.7113,0,U,37179,999,85666,.17247887E-3,.3441E-4,0
SHIJIAN-6 04B (SJ-6 04B),2010-051B,2026-06-15T06:54:22.495104,14.99310343,.00082137,97.8679,171.6781,320.7136,39.3490,0,U,37180,999,85539,.10133349E-3,.1177E-4,0
XM-5,2010-053A,2026-06-15T00:23:38.718240,1.00271028,.00028901,0.0647,273.1886,289.1857,311.6507,0,U,37185,999,5746,0,-.18E-6,0
GLOBALSTAR M079,2010-054A,2026-06-15T03:30:21.967776,12.62266071,.00006695,52.0032,114.8830,19.1203,354.0337,0,U,37188,999,72229,-.87018717E-4,-.119E-5,0
GLOBALSTAR M074,2010-054B,2026-06-15T04:08:21.895296,12.62268388,.00005029,52.0005,114.0676,49.4396,323.9013,0,U,37189,999,72290,-.11806778E-3,-.125E-5,0
GLOBALSTAR M076,2010-054C,2026-06-15T02:52:09.108768,12.62261787,.0000686,52.0024,114.4316,39.8014,333.0406,0,U,37190,999,72261,-.45936054E-4,-.112E-5,0
GLOBALSTAR M077,2010-054D,2026-06-15T05:50:59.661312,11.67547791,.00027654,51.9922,184.2290,169.0850,272.1211,0,U,37191,999,72091,.23181382E-3,-.65E-6,0
GLOBALSTAR M075,2010-054E,2026-06-15T03:32:01.877280,12.62267401,.00001146,51.9920,156.4037,19.8267,58.7839,0,U,37192,999,72168,-.57758221E-4,-.114E-5,0
GLOBALSTAR M073,2010-054F,2026-06-15T01:17:41.199648,12.62262122,.00008863,52.0068,70.7859,43.3790,329.6067,0,U,37193,999,72366,-.10360587E-4,-.106E-5,0
BSAT-3B,2010-056B,2026-06-15T06:44:18.354336,1.00270198,.00015253,0.0664,243.6048,304.6599,286.2344,0,U,37207,999,5208,0,-.346E-5,0
BEIDOU-2 G4,2010-057A,2026-06-15T07:58:35.504832,1.00270763,.00052582,3.6415,68.9537,196.9053,277.4114,0,U,37210,999,5727,0,-.112E-5,0
